[{"OBJECT_NAME":"DUPLEX","OBJECT_ID":"1998-067XS","EPOCH":"2026-03-27T07:16:43.345344","MEAN_MOTION":15.57391828,"ECCENTRICITY":0.0002793,"INCLINATION":51.6305,"RA_OF_ASC_NODE":341.2773,"ARG_OF_PERICENTER":193.7351,"MEAN_ANOMALY":166.3565,"EPHEMERIS_TYPE":0,"CLASSIFICATION_TYPE":"U","NORAD_CAT_ID":66906,"ELEMENT_SET_NO":999,"REV_AT_EPOCH":1787,"BSTAR":0.00040157,"MEAN_MOTION_DOT":0.00029604,"MEAN_MOTION_DDOT":0},{"OBJECT_NAME":"ISS OBJECT XT","OBJECT_ID":"1998-067XT","EPOCH":"2026-03-27T01:29:05.844480","MEAN_MOTION":15.75548676,"ECCENTRICITY":0.00057392,"INCLINATION":51.625,"RA_OF_ASC_NODE":336.6305,"ARG_OF_PERICENTER":192.2616,"MEAN_ANOMALY":167.8244,"EPHEMERIS_TYPE":0,"CLASSIFICATION_TYPE":"U","NORAD_CAT_ID":66907,"ELEMENT_SET_NO":999,"REV_AT_EPOCH":1791,"BSTAR":0.001380013,"MEAN_MOTION_DOT":0.00219962,"MEAN_MOTION_DDOT":0},{"OBJECT_NAME":"ISS OBJECT XU","OBJECT_ID":"1998-067XU","EPOCH":"2026-03-27T01:24:02.046528","MEAN_MOTION":15.75783311,"ECCENTRICITY":0.0005927,"INCLINATION":51.6238,"RA_OF_ASC_NODE":336.6028,"ARG_OF_PERICENTER":191.862,"MEAN_ANOMALY":168.2241,"EPHEMERIS_TYPE":0,"CLASSIFICATION_TYPE":"U","NORAD_CAT_ID":66908,"ELEMENT_SET_NO":999,"REV_AT_EPOCH":1791,"BSTAR":0.0014272028,"MEAN_MOTION_DOT":0.00230149,"MEAN_MOTION_DDOT":0},{"OBJECT_NAME":"SILVERSAT","OBJECT_ID":"1998-067XV","EPOCH":"2026-03-27T09:31:56.794368","MEAN_MOTION":15.8089904,"ECCENTRICITY":0.0006751,"INCLINATION":51.6218,"RA_OF_ASC_NODE":333.603,"ARG_OF_PERICENTER":200.061,"MEAN_ANOMALY":160.0127,"EPHEMERIS_TYPE":0,"CLASSIFICATION_TYPE":"U","NORAD_CAT_ID":66909,"ELEMENT_SET_NO":999,"REV_AT_EPOCH":1798,"BSTAR":0.0013988,"MEAN_MOTION_DOT":0.00285869,"MEAN_MOTION_DDOT":0},{"OBJECT_NAME":"ISS OBJECT XW","OBJECT_ID":"1998-067XW","EPOCH":"2026-03-27T09:14:08.880864","MEAN_MOTION":15.74302538,"ECCENTRICITY":0.0006156,"INCLINATION":51.624,"RA_OF_ASC_NODE":335.0299,"ARG_OF_PERICENTER":192.3775,"MEAN_ANOMALY":167.7073,"EPHEMERIS_TYPE":0,"CLASSIFICATION_TYPE":"U","NORAD_CAT_ID":66910,"ELEMENT_SET_NO":999,"REV_AT_EPOCH":1796,"BSTAR":0.0011341,"MEAN_MOTION_DOT":0.00170121,"MEAN_MOTION_DDOT":0},{"OBJECT_NAME":"ISS OBJECT XX","OBJECT_ID":"1998-067XX","EPOCH":"2026-03-27T20:21:32.523840","MEAN_MOTION":15.87462812,"ECCENTRICITY":0.000854,"INCLINATION":51.6197,"RA_OF_ASC_NODE":329.8299,"ARG_OF_PERICENTER":207.5646,"MEAN_ANOMALY":152.4906,"EPHEMERIS_TYPE":0,"CLASSIFICATION_TYPE":"U","NORAD_CAT_ID":66911,"ELEMENT_SET_NO":999,"REV_AT_EPOCH":1806,"BSTAR":0.0015432,"MEAN_MOTION_DOT":0.00439339,"MEAN_MOTION_DDOT":0},{"OBJECT_NAME":"ISS OBJECT XY","OBJECT_ID":"1998-067XY","EPOCH":"2026-03-27T09:24:42.437376","MEAN_MOTION":15.67254502,"ECCENTRICITY":0.0004178,"INCLINATION":51.627,"RA_OF_ASC_NODE":337.3587,"ARG_OF_PERICENTER":191.2645,"MEAN_ANOMALY":168.8258,"EPHEMERIS_TYPE":0,"CLASSIFICATION_TYPE":"U","NORAD_CAT_ID":66912,"ELEMENT_SET_NO":999,"REV_AT_EPOCH":1792,"BSTAR":0.00089628,"MEAN_MOTION_DOT":0.00098975,"MEAN_MOTION_DDOT":0},{"OBJECT_NAME":"KNACKSAT-2","OBJECT_ID":"1998-067XZ","EPOCH":"2026-03-27T10:17:06.366624","MEAN_MOTION":15.53279398,"ECCENTRICITY":0.0009914,"INCLINATION":51.6325,"RA_OF_ASC_NODE":343.6129,"ARG_OF_PERICENTER":250.0621,"MEAN_ANOMALY":109.9301,"EPHEMERIS_TYPE":0,"CLASSIFICATION_TYPE":"U","NORAD_CAT_ID":67683,"ELEMENT_SET_NO":999,"REV_AT_EPOCH":754,"BSTAR":0.00057723,"MEAN_MOTION_DOT":0.00036813,"MEAN_MOTION_DDOT":0},{"OBJECT_NAME":"CORAL","OBJECT_ID":"1998-067YA","EPOCH":"2026-03-27T10:17:07.752480","MEAN_MOTION":15.57296527,"ECCENTRICITY":0.0012536,"INCLINATION":51.6313,"RA_OF_ASC_NODE":342.8639,"ARG_OF_PERICENTER":239.6168,"MEAN_ANOMALY":120.3585,"EPHEMERIS_TYPE":0,"CLASSIFICATION_TYPE":"U","NORAD_CAT_ID":67684,"ELEMENT_SET_NO":999,"REV_AT_EPOCH":755,"BSTAR":0.0010695,"MEAN_MOTION_DOT":0.00080155,"MEAN_MOTION_DDOT":0},{"OBJECT_NAME":"GXIBA-1","OBJECT_ID":"1998-067YB","EPOCH":"2026-03-27T17:46:28.233120","MEAN_MOTION":15.53836913,"ECCENTRICITY":0.0011854,"INCLINATION":51.6321,"RA_OF_ASC_NODE":341.947,"ARG_OF_PERICENTER":248.0145,"MEAN_ANOMALY":111.9586,"EPHEMERIS_TYPE":0,"CLASSIFICATION_TYPE":"U","NORAD_CAT_ID":67685,"ELEMENT_SET_NO":999,"REV_AT_EPOCH":759,"BSTAR":0.00064447,"MEAN_MOTION_DOT":0.00042071,"MEAN_MOTION_DDOT":0},{"OBJECT_NAME":"UITMSAT-2","OBJECT_ID":"1998-067YC","EPOCH":"2026-03-27T09:43:35.079168","MEAN_MOTION":15.54719469,"ECCENTRICITY":0.0008937,"INCLINATION":51.632,"RA_OF_ASC_NODE":343.4609,"ARG_OF_PERICENTER":217.8888,"MEAN_ANOMALY":142.1474,"EPHEMERIS_TYPE":0,"CLASSIFICATION_TYPE":"U","NORAD_CAT_ID":67686,"ELEMENT_SET_NO":999,"REV_AT_EPOCH":754,"BSTAR":0.0007617,"MEAN_MOTION_DOT":0.00051452,"MEAN_MOTION_DDOT":0},{"OBJECT_NAME":"HMU-SAT2","OBJECT_ID":"1998-067YD","EPOCH":"2026-03-27T10:10:10.247808","MEAN_MOTION":15.53557567,"ECCENTRICITY":0.0008492,"INCLINATION":51.6328,"RA_OF_ASC_NODE":343.584,"ARG_OF_PERICENTER":221.2515,"MEAN_ANOMALY":138.7834,"EPHEMERIS_TYPE":0,"CLASSIFICATION_TYPE":"U","NORAD_CAT_ID":67687,"ELEMENT_SET_NO":999,"REV_AT_EPOCH":746,"BSTAR":0.00063963,"MEAN_MOTION_DOT":0.00041264,"MEAN_MOTION_DDOT":0},{"OBJECT_NAME":"LEOPARD","OBJECT_ID":"1998-067YE","EPOCH":"2026-03-27T02:09:41.960736","MEAN_MOTION":15.54275853,"ECCENTRICITY":0.00086502,"INCLINATION":51.6328,"RA_OF_ASC_NODE":345.1054,"ARG_OF_PERICENTER":217.3181,"MEAN_ANOMALY":142.721,"EPHEMERIS_TYPE":0,"CLASSIFICATION_TYPE":"U","NORAD_CAT_ID":67688,"ELEMENT_SET_NO":999,"REV_AT_EPOCH":741,"BSTAR":0.00079602331,"MEAN_MOTION_DOT":0.00052925,"MEAN_MOTION_DDOT":0},{"OBJECT_NAME":"CREW DRAGON 12","OBJECT_ID":"2026-031A","EPOCH":"2026-03-27T20:12:32.650848","MEAN_MOTION":15.48591753,"ECCENTRICITY":0.0006212,"INCLINATION":51.6344,"RA_OF_ASC_NODE":342.6225,"ARG_OF_PERICENTER":240.1567,"MEAN_ANOMALY":119.8804,"EPHEMERIS_TYPE":0,"CLASSIFICATION_TYPE":"U","NORAD_CAT_ID":67796,"ELEMENT_SET_NO":999,"REV_AT_EPOCH":55908,"BSTAR":0.00022728,"MEAN_MOTION_DOT":0.0001192,"MEAN_MOTION_DDOT":0},{"OBJECT_NAME":"PROGRESS-MS 33","OBJECT_ID":"2026-058A","EPOCH":"2026-03-27T20:12:32.650848","MEAN_MOTION":15.48591753,"ECCENTRICITY":0.0006212,"INCLINATION":51.6344,"RA_OF_ASC_NODE":342.6225,"ARG_OF_PERICENTER":240.1567,"MEAN_ANOMALY":119.8804,"EPHEMERIS_TYPE":0,"CLASSIFICATION_TYPE":"U","NORAD_CAT_ID":68319,"ELEMENT_SET_NO":999,"REV_AT_EPOCH":59,"BSTAR":0.00022728,"MEAN_MOTION_DOT":0.0001192,"MEAN_MOTION_DDOT":0}]
